{
  "type": "FeatureCollection",
  "name": "PEARSON_ROAD_LARGE_AND_SMALL_PARCELS",
  "properties": {
    "property_id": "221S280000001010000",
    "county_recorded_total_acres": 86.7464918,
    "source": "Frozen v5 county parcel geometry",
    "source_geometry_modified": false,
    "limitation": "Phone GPS and county parcel geometry are approximate and are not a survey."
  },
  "features": [
    {
      "type": "Feature",
      "id": "221S280000001010000-LARGE",
      "properties": {
        "property_id": "221S280000001010000",
        "parcel_part_id": "221S280000001010000-LARGE",
        "display_name": "LARGE PARCEL",
        "county_recorded_total_acres": 86.7464918,
        "component_acres": null,
        "information_class": "COUNTY_PARCEL_GEOMETRY",
        "source_ring_index": 0
      },
      "geometry": {
        "type": "Polygon",
        "coordinates": [
          [
            [
              -87.0845120224395,
              30.4865310697842
            ],
            [
              -87.088708310752,
              30.4865755960689
            ],
            [
              -87.0886939257085,
              30.4871893100922
            ],
            [
              -87.0886797017473,
              30.4877932408389
            ],
            [
              -87.0886654764524,
              30.4883971670039
            ],
            [
              -87.0927457387322,
              30.4884323968728
            ],
            [
              -87.0927582509167,
              30.4894435197364
            ],
            [
              -87.0919148386255,
              30.4898722015236
            ],
            [
              -87.09092662576,
              30.4903692059014
            ],
            [
              -87.090841104479,
              30.4904299698723
            ],
            [
              -87.0908024577721,
              30.490480980405
            ],
            [
              -87.0907699144708,
              30.4905350910986
            ],
            [
              -87.0907438030326,
              30.4905917559189
            ],
            [
              -87.0907243877091,
              30.4906504039282
            ],
            [
              -87.0907118623679,
              30.4907104421136
            ],
            [
              -87.090628463883,
              30.4912977550218
            ],
            [
              -87.0843454344172,
              30.4918175810789
            ],
            [
              -87.0843257444383,
              30.4911001628273
            ],
            [
              -87.0843614864852,
              30.4901542322454
            ],
            [
              -87.0845120224395,
              30.4865310697842
            ]
          ]
        ]
      }
    },
    {
      "type": "Feature",
      "id": "221S280000001010000-SMALL",
      "properties": {
        "property_id": "221S280000001010000",
        "parcel_part_id": "221S280000001010000-SMALL",
        "display_name": "SMALL PARCEL",
        "county_recorded_total_acres": 86.7464918,
        "component_acres": null,
        "information_class": "COUNTY_PARCEL_GEOMETRY",
        "source_ring_index": 1
      },
      "geometry": {
        "type": "Polygon",
        "coordinates": [
          [
            [
              -87.0927527771255,
              30.4896057047166
            ],
            [
              -87.0927269139185,
              30.4905143999548
            ],
            [
              -87.0927096037795,
              30.4911226029213
            ],
            [
              -87.0927095218051,
              30.4911255117403
            ],
            [
              -87.0907903068713,
              30.4912843629312
            ],
            [
              -87.0908684165086,
              30.4907342772378
            ],
            [
              -87.0908802286263,
              30.4906779524956
            ],
            [
              -87.0908998966531,
              30.4906232993744
            ],
            [
              -87.0909271263499,
              30.4905711357302
            ],
            [
              -87.0909615089563,
              30.4905222428735
            ],
            [
              -87.0910174168417,
              30.4904825204399
            ],
            [
              -87.0919948733335,
              30.4899909253571
            ],
            [
              -87.0927527771255,
              30.4896057047166
            ]
          ]
        ]
      }
    }
  ]
}
