{
  "type": "FeatureCollection",
  "features": [
    {
      "type": "Feature",
      "geometry": {
        "type": "LineString",
        "coordinates": [
          [
            -87.0905155,
            30.4913414
          ],
          [
            -87.0905481,
            30.4913548
          ],
          [
            -87.0905439,
            30.4913592
          ],
          [
            -87.0905497,
            30.4913508
          ],
          [
            -87.0905684,
            30.4913412
          ],
          [
            -87.090559,
            30.4913359
          ],
          [
            -87.0905699,
            30.4913348
          ],
          [
            -87.0905768,
            30.4913286
          ],
          [
            -87.0905788,
            30.4913274
          ],
          [
            -87.0905814,
            30.491327
          ],
          [
            -87.0905806,
            30.4913287
          ],
          [
            -87.0905806,
            30.4913277
          ],
          [
            -87.0905811,
            30.4913296
          ],
          [
            -87.0905811,
            30.4913296
          ],
          [
            -87.0905828,
            30.4913303
          ],
          [
            -87.0905828,
            30.4913314
          ],
          [
            -87.0905828,
            30.4913314
          ],
          [
            -87.0905843,
            30.4913324
          ],
          [
            -87.0905843,
            30.4913324
          ],
          [
            -87.0905843,
            30.4913324
          ],
          [
            -87.0905837,
            30.4913322
          ],
          [
            -87.0905837,
            30.4913322
          ],
          [
            -87.0905837,
            30.4913322
          ],
          [
            -87.0905838,
            30.491332
          ],
          [
            -87.0905838,
            30.491332
          ],
          [
            -87.0905838,
            30.4913319
          ],
          [
            -87.0905884,
            30.4913297
          ],
          [
            -87.0905929,
            30.4913241
          ],
          [
            -87.0905924,
            30.4913211
          ],
          [
            -87.0905934,
            30.4913193
          ],
          [
            -87.0905931,
            30.4913177
          ],
          [
            -87.0905946,
            30.4913165
          ],
          [
            -87.0905947,
            30.4913167
          ],
          [
            -87.090628,
            30.4913022
          ],
          [
            -87.09063,
            30.4913086
          ],
          [
            -87.0906313,
            30.4913019
          ],
          [
            -87.0906248,
            30.4913034
          ],
          [
            -87.0906182,
            30.491306
          ],
          [
            -87.0906155,
            30.4913066
          ],
          [
            -87.0906144,
            30.4913023
          ],
          [
            -87.0906152,
            30.4913033
          ],
          [
            -87.0906094,
            30.4912992
          ],
          [
            -87.0906167,
            30.4913019
          ],
          [
            -87.0906151,
            30.4912975
          ],
          [
            -87.090622,
            30.4912997
          ],
          [
            -87.090632,
            30.4913014
          ],
          [
            -87.090635,
            30.4913044
          ],
          [
            -87.0906283,
            30.4913129
          ],
          [
            -87.090614,
            30.4913142
          ],
          [
            -87.0906107,
            30.4913124
          ],
          [
            -87.0906164,
            30.4913128
          ],
          [
            -87.0906164,
            30.4913128
          ],
          [
            -87.0906177,
            30.4913148
          ],
          [
            -87.0906107,
            30.4913185
          ],
          [
            -87.0906169,
            30.4913205
          ],
          [
            -87.0906157,
            30.4913215
          ],
          [
            -87.0906088,
            30.4913211
          ],
          [
            -87.0906103,
            30.4913168
          ],
          [
            -87.0906108,
            30.4913237
          ],
          [
            -87.090615,
            30.4913189
          ],
          [
            -87.0906178,
            30.4913197
          ],
          [
            -87.090618,
            30.4913199
          ],
          [
            -87.0906286,
            30.4913193
          ],
          [
            -87.0906364,
            30.491314
          ],
          [
            -87.0906399,
            30.4913154
          ],
          [
            -87.090675,
            30.4913169
          ],
          [
            -87.0906879,
            30.4913233
          ],
          [
            -87.0906711,
            30.49132
          ],
          [
            -87.0906654,
            30.4913142
          ],
          [
            -87.0906505,
            30.4913094
          ],
          [
            -87.0906456,
            30.4913076
          ],
          [
            -87.0906426,
            30.4913075
          ],
          [
            -87.0906426,
            30.4913075
          ],
          [
            -87.0906463,
            30.4913029
          ],
          [
            -87.0906445,
            30.4913026
          ],
          [
            -87.0906417,
            30.4913021
          ],
          [
            -87.090644,
            30.4913014
          ],
          [
            -87.0906489,
            30.4913042
          ],
          [
            -87.090658,
            30.4912999
          ],
          [
            -87.0906592,
            30.4913045
          ],
          [
            -87.0906572,
            30.4912954
          ],
          [
            -87.0906555,
            30.4913053
          ],
          [
            -87.0906471,
            30.4913122
          ],
          [
            -87.0906449,
            30.4913126
          ],
          [
            -87.0906396,
            30.4913071
          ],
          [
            -87.0906321,
            30.4913097
          ],
          [
            -87.0906211,
            30.4913021
          ],
          [
            -87.0906183,
            30.4912989
          ],
          [
            -87.090611,
            30.4912943
          ],
          [
            -87.0906124,
            30.4912846
          ],
          [
            -87.0906089,
            30.4912865
          ],
          [
            -87.0906034,
            30.4912958
          ],
          [
            -87.0906007,
            30.4912983
          ],
          [
            -87.0906,
            30.4913016
          ],
          [
            -87.0906054,
            30.4913122
          ],
          [
            -87.0906054,
            30.4913122
          ],
          [
            -87.0906103,
            30.4913088
          ],
          [
            -87.0906162,
            30.4913102
          ],
          [
            -87.0906178,
            30.4913111
          ],
          [
            -87.0906242,
            30.491317
          ],
          [
            -87.090627,
            30.4913187
          ],
          [
            -87.0906276,
            30.4913176
          ],
          [
            -87.0906278,
            30.4913181
          ],
          [
            -87.0906279,
            30.4913184
          ],
          [
            -87.0906334,
            30.4913207
          ],
          [
            -87.0906422,
            30.4913202
          ],
          [
            -87.0906473,
            30.4913154
          ],
          [
            -87.0906511,
            30.491314
          ],
          [
            -87.0906493,
            30.4913096
          ],
          [
            -87.09065,
            30.4912983
          ],
          [
            -87.0906542,
            30.4912911
          ],
          [
            -87.0906516,
            30.4912842
          ],
          [
            -87.0906497,
            30.4912828
          ],
          [
            -87.0906515,
            30.4912826
          ],
          [
            -87.0906493,
            30.491285
          ],
          [
            -87.0906477,
            30.4912851
          ],
          [
            -87.0906475,
            30.4912879
          ],
          [
            -87.090646,
            30.4913001
          ],
          [
            -87.0906437,
            30.4913143
          ],
          [
            -87.0906444,
            30.491328
          ],
          [
            -87.0906386,
            30.4913342
          ],
          [
            -87.0906341,
            30.4913479
          ],
          [
            -87.0906334,
            30.4913483
          ],
          [
            -87.0906334,
            30.4913483
          ],
          [
            -87.0906401,
            30.4913494
          ],
          [
            -87.0906363,
            30.4913517
          ],
          [
            -87.0906404,
            30.4913513
          ],
          [
            -87.0906431,
            30.4913489
          ],
          [
            -87.0906417,
            30.4913476
          ],
          [
            -87.0906414,
            30.4913475
          ],
          [
            -87.0906385,
            30.4913461
          ],
          [
            -87.0906342,
            30.4913456
          ],
          [
            -87.0906319,
            30.4913374
          ],
          [
            -87.0906334,
            30.4913259
          ],
          [
            -87.0906389,
            30.4913044
          ],
          [
            -87.0906433,
            30.4912922
          ],
          [
            -87.0906439,
            30.4912787
          ],
          [
            -87.0906318,
            30.4912728
          ],
          [
            -87.0906162,
            30.4912361
          ],
          [
            -87.0906152,
            30.4912668
          ],
          [
            -87.090606,
            30.4912748
          ],
          [
            -87.0905797,
            30.4912708
          ],
          [
            -87.090564,
            30.4912847
          ],
          [
            -87.0905694,
            30.4912859
          ],
          [
            -87.0905828,
            30.4912828
          ],
          [
            -87.0905799,
            30.4912799
          ],
          [
            -87.0905828,
            30.4912787
          ],
          [
            -87.0905894,
            30.491283
          ],
          [
            -87.0905894,
            30.491283
          ],
          [
            -87.0905886,
            30.4912829
          ],
          [
            -87.0905796,
            30.4912824
          ],
          [
            -87.090591,
            30.4913025
          ],
          [
            -87.0905918,
            30.4913058
          ],
          [
            -87.0906003,
            30.491314
          ],
          [
            -87.0906004,
            30.4913206
          ],
          [
            -87.0905973,
            30.4913226
          ],
          [
            -87.0905903,
            30.491327
          ],
          [
            -87.0905917,
            30.4913257
          ],
          [
            -87.0905959,
            30.4913231
          ],
          [
            -87.0905957,
            30.4913216
          ],
          [
            -87.090596,
            30.49132
          ],
          [
            -87.0905963,
            30.4913187
          ],
          [
            -87.0905962,
            30.491317
          ],
          [
            -87.0906012,
            30.4913205
          ],
          [
            -87.090605,
            30.491317
          ],
          [
            -87.0906077,
            30.4913067
          ],
          [
            -87.0906199,
            30.4913014
          ],
          [
            -87.0906329,
            30.4912944
          ],
          [
            -87.0906329,
            30.4912944
          ],
          [
            -87.0906361,
            30.4912995
          ],
          [
            -87.0906293,
            30.4913009
          ],
          [
            -87.0906265,
            30.4913064
          ],
          [
            -87.0906313,
            30.4913114
          ],
          [
            -87.0906359,
            30.4913158
          ],
          [
            -87.0906358,
            30.4913178
          ],
          [
            -87.0906346,
            30.4913193
          ],
          [
            -87.0906321,
            30.4913172
          ],
          [
            -87.0906378,
            30.4913146
          ],
          [
            -87.0906384,
            30.4913143
          ],
          [
            -87.0906436,
            30.4913193
          ],
          [
            -87.0906447,
            30.4913161
          ],
          [
            -87.0906423,
            30.491315
          ],
          [
            -87.0906455,
            30.4913104
          ],
          [
            -87.0906422,
            30.4913097
          ],
          [
            -87.0906383,
            30.4913055
          ],
          [
            -87.0906303,
            30.4913037
          ],
          [
            -87.090621,
            30.4913016
          ],
          [
            -87.0906199,
            30.4913026
          ],
          [
            -87.0906151,
            30.4913094
          ],
          [
            -87.0906217,
            30.4912998
          ],
          [
            -87.0906367,
            30.4913015
          ],
          [
            -87.090638,
            30.4913058
          ],
          [
            -87.090638,
            30.4913089
          ],
          [
            -87.0906431,
            30.4913104
          ],
          [
            -87.0906431,
            30.4913104
          ],
          [
            -87.0906426,
            30.4913135
          ],
          [
            -87.0906317,
            30.4913075
          ],
          [
            -87.0906301,
            30.4913003
          ],
          [
            -87.0906328,
            30.4912944
          ],
          [
            -87.0906385,
            30.491295
          ],
          [
            -87.0906385,
            30.491295
          ],
          [
            -87.0906385,
            30.491295
          ],
          [
            -87.0906405,
            30.4912945
          ],
          [
            -87.0906369,
            30.4912902
          ],
          [
            -87.0906365,
            30.4912896
          ],
          [
            -87.0906297,
            30.4912917
          ],
          [
            -87.0906264,
            30.4912968
          ],
          [
            -87.0906248,
            30.4913109
          ],
          [
            -87.0906253,
            30.491327
          ],
          [
            -87.090626,
            30.4913343
          ],
          [
            -87.090618,
            30.4913353
          ],
          [
            -87.090618,
            30.4913353
          ],
          [
            -87.0906169,
            30.4913311
          ],
          [
            -87.0906095,
            30.4913235
          ],
          [
            -87.0906087,
            30.4913244
          ],
          [
            -87.0906087,
            30.4913244
          ],
          [
            -87.0906087,
            30.4913244
          ],
          [
            -87.0906087,
            30.4913244
          ],
          [
            -87.0906087,
            30.4913244
          ],
          [
            -87.0906087,
            30.4913244
          ],
          [
            -87.0906087,
            30.4913244
          ],
          [
            -87.090605,
            30.491331
          ],
          [
            -87.0906081,
            30.4913268
          ],
          [
            -87.0906081,
            30.4913268
          ],
          [
            -87.0906081,
            30.4913268
          ],
          [
            -87.0906081,
            30.4913268
          ],
          [
            -87.0906069,
            30.4913136
          ],
          [
            -87.0906067,
            30.4913145
          ],
          [
            -87.0906067,
            30.4913138
          ],
          [
            -87.0906055,
            30.4913148
          ],
          [
            -87.0906055,
            30.4913148
          ],
          [
            -87.0906055,
            30.4913148
          ],
          [
            -87.0906072,
            30.4913198
          ],
          [
            -87.0906161,
            30.4913186
          ],
          [
            -87.0906203,
            30.4913084
          ],
          [
            -87.0906287,
            30.4913006
          ],
          [
            -87.0906416,
            30.4912924
          ]
        ]
      },
      "properties": {
        "inspection_date": "2026-08-03",
        "segment": 1,
        "information_class": "CAPTURED_BY_DEVICE",
        "warning": "PHONE GPS \u2014 NOT A SURVEY"
      }
    },
    {
      "type": "Feature",
      "geometry": {
        "type": "LineString",
        "coordinates": [
          [
            -87.0914383,
            30.4903871
          ],
          [
            -87.091488,
            30.4903792
          ],
          [
            -87.091508,
            30.4903733
          ],
          [
            -87.0915002,
            30.4903721
          ],
          [
            -87.0914993,
            30.4903724
          ],
          [
            -87.0914967,
            30.4903724
          ],
          [
            -87.0914928,
            30.4903732
          ],
          [
            -87.0914891,
            30.4903709
          ],
          [
            -87.0914897,
            30.4903713
          ],
          [
            -87.0914905,
            30.4903714
          ],
          [
            -87.0914899,
            30.4903709
          ],
          [
            -87.0914899,
            30.4903709
          ],
          [
            -87.0914902,
            30.4903685
          ],
          [
            -87.0914903,
            30.4903559
          ],
          [
            -87.09148,
            30.490355
          ],
          [
            -87.0914876,
            30.4903507
          ],
          [
            -87.0914876,
            30.4903507
          ],
          [
            -87.0914836,
            30.4903473
          ],
          [
            -87.0914804,
            30.4903457
          ],
          [
            -87.0914818,
            30.490345
          ],
          [
            -87.0914848,
            30.4903454
          ],
          [
            -87.0914843,
            30.4903447
          ],
          [
            -87.0914875,
            30.4903448
          ],
          [
            -87.0914876,
            30.4903465
          ],
          [
            -87.0914876,
            30.4903493
          ],
          [
            -87.091487,
            30.4903497
          ],
          [
            -87.0914859,
            30.4903528
          ],
          [
            -87.0914865,
            30.4903533
          ],
          [
            -87.091487,
            30.4903535
          ],
          [
            -87.0914874,
            30.4903535
          ],
          [
            -87.0914857,
            30.4903543
          ],
          [
            -87.0914848,
            30.4903544
          ],
          [
            -87.0914803,
            30.4903538
          ],
          [
            -87.0914852,
            30.4903591
          ],
          [
            -87.0914853,
            30.4903603
          ],
          [
            -87.0914826,
            30.4903631
          ],
          [
            -87.0914925,
            30.4903665
          ],
          [
            -87.091508,
            30.4903621
          ],
          [
            -87.0915213,
            30.4903504
          ],
          [
            -87.0915288,
            30.4903483
          ],
          [
            -87.0915199,
            30.4903497
          ],
          [
            -87.0915207,
            30.4903502
          ],
          [
            -87.0915202,
            30.4903544
          ],
          [
            -87.0915184,
            30.4903598
          ],
          [
            -87.0915177,
            30.4903948
          ],
          [
            -87.0915153,
            30.4903928
          ],
          [
            -87.0915268,
            30.4903955
          ],
          [
            -87.091527,
            30.490393
          ],
          [
            -87.0915359,
            30.4903938
          ],
          [
            -87.0915321,
            30.4903835
          ],
          [
            -87.0915321,
            30.4903835
          ],
          [
            -87.0915314,
            30.4903801
          ],
          [
            -87.0915283,
            30.4903794
          ],
          [
            -87.0915263,
            30.4903782
          ],
          [
            -87.0915223,
            30.4903813
          ],
          [
            -87.0915197,
            30.4903759
          ],
          [
            -87.0915173,
            30.4903702
          ],
          [
            -87.0915171,
            30.490372
          ],
          [
            -87.0915176,
            30.490369
          ],
          [
            -87.0915176,
            30.490369
          ],
          [
            -87.0915155,
            30.4903684
          ],
          [
            -87.0915155,
            30.4903683
          ],
          [
            -87.0915164,
            30.490365
          ],
          [
            -87.0915129,
            30.4903675
          ],
          [
            -87.0915124,
            30.4903689
          ],
          [
            -87.0915133,
            30.4903692
          ],
          [
            -87.0915129,
            30.4903691
          ],
          [
            -87.0915118,
            30.4903711
          ],
          [
            -87.0915116,
            30.4903723
          ],
          [
            -87.0915164,
            30.4903606
          ],
          [
            -87.0915184,
            30.4903714
          ],
          [
            -87.0915189,
            30.4903782
          ],
          [
            -87.0915198,
            30.4903871
          ],
          [
            -87.091522,
            30.4903777
          ],
          [
            -87.0915242,
            30.4903826
          ],
          [
            -87.0915239,
            30.4903793
          ],
          [
            -87.0915205,
            30.490375
          ],
          [
            -87.0915199,
            30.4903755
          ],
          [
            -87.0915284,
            30.4903752
          ],
          [
            -87.091539,
            30.4903749
          ],
          [
            -87.0915477,
            30.4903774
          ],
          [
            -87.0915512,
            30.4903817
          ],
          [
            -87.0915457,
            30.4903798
          ],
          [
            -87.0915467,
            30.4903831
          ],
          [
            -87.0915375,
            30.4903869
          ],
          [
            -87.0915401,
            30.490391
          ],
          [
            -87.0915495,
            30.4903881
          ],
          [
            -87.0915463,
            30.4903838
          ],
          [
            -87.0915537,
            30.4903816
          ],
          [
            -87.0915587,
            30.4903901
          ],
          [
            -87.0915598,
            30.4903888
          ],
          [
            -87.0915622,
            30.4903911
          ],
          [
            -87.0915515,
            30.4903864
          ],
          [
            -87.0915475,
            30.4903909
          ],
          [
            -87.0915563,
            30.4903949
          ],
          [
            -87.0915608,
            30.4903943
          ],
          [
            -87.0915515,
            30.4904106
          ],
          [
            -87.091559,
            30.4904034
          ],
          [
            -87.0915622,
            30.4904028
          ],
          [
            -87.0915642,
            30.4904012
          ],
          [
            -87.0915609,
            30.4903881
          ],
          [
            -87.0915634,
            30.490388
          ],
          [
            -87.091562,
            30.4903872
          ],
          [
            -87.0915593,
            30.4903848
          ],
          [
            -87.0915667,
            30.4903864
          ],
          [
            -87.0915612,
            30.4903929
          ],
          [
            -87.0915612,
            30.4903929
          ],
          [
            -87.0915548,
            30.4903941
          ],
          [
            -87.0915509,
            30.490392
          ],
          [
            -87.0915443,
            30.4903932
          ],
          [
            -87.0915532,
            30.4903914
          ],
          [
            -87.091554,
            30.4903917
          ],
          [
            -87.0915531,
            30.4903908
          ],
          [
            -87.0915432,
            30.4903893
          ],
          [
            -87.0915435,
            30.4903907
          ],
          [
            -87.0915367,
            30.4903939
          ],
          [
            -87.0915448,
            30.490394
          ],
          [
            -87.0915482,
            30.4903997
          ],
          [
            -87.0915571,
            30.4903995
          ],
          [
            -87.0915571,
            30.4903995
          ],
          [
            -87.0915566,
            30.4903913
          ],
          [
            -87.0915664,
            30.4903825
          ],
          [
            -87.0915652,
            30.4903777
          ],
          [
            -87.0915618,
            30.4903716
          ],
          [
            -87.0915635,
            30.490375
          ],
          [
            -87.0915562,
            30.4903739
          ],
          [
            -87.0915512,
            30.4903756
          ],
          [
            -87.0915682,
            30.4903736
          ],
          [
            -87.0915682,
            30.4903755
          ],
          [
            -87.0915682,
            30.4903755
          ],
          [
            -87.0915599,
            30.4903778
          ],
          [
            -87.0915546,
            30.4903805
          ],
          [
            -87.0915533,
            30.4903837
          ],
          [
            -87.0915493,
            30.4903821
          ],
          [
            -87.0915412,
            30.4903836
          ],
          [
            -87.091545,
            30.4903854
          ],
          [
            -87.0915411,
            30.4903862
          ],
          [
            -87.0915422,
            30.4903831
          ],
          [
            -87.0915503,
            30.4903855
          ],
          [
            -87.0915572,
            30.4903879
          ],
          [
            -87.0915557,
            30.4903865
          ],
          [
            -87.0915607,
            30.490391
          ],
          [
            -87.0915628,
            30.4903905
          ],
          [
            -87.0915618,
            30.4903878
          ],
          [
            -87.0915768,
            30.4903883
          ],
          [
            -87.0915913,
            30.4903755
          ],
          [
            -87.0915839,
            30.4903684
          ],
          [
            -87.0915788,
            30.4903634
          ],
          [
            -87.0915712,
            30.4903531
          ],
          [
            -87.0915735,
            30.4903523
          ],
          [
            -87.0915834,
            30.4903431
          ],
          [
            -87.0915822,
            30.4903446
          ],
          [
            -87.0915801,
            30.4903509
          ],
          [
            -87.0915864,
            30.4903639
          ],
          [
            -87.0915855,
            30.4903707
          ],
          [
            -87.091594,
            30.4903646
          ],
          [
            -87.0916045,
            30.4903526
          ],
          [
            -87.0915981,
            30.4903442
          ],
          [
            -87.091598,
            30.4903426
          ],
          [
            -87.0916003,
            30.4903433
          ],
          [
            -87.0916019,
            30.4903431
          ],
          [
            -87.0916026,
            30.4903449
          ],
          [
            -87.0916017,
            30.490346
          ],
          [
            -87.0916006,
            30.4903506
          ],
          [
            -87.0915994,
            30.4903529
          ],
          [
            -87.0915985,
            30.4903528
          ],
          [
            -87.0915878,
            30.4903515
          ],
          [
            -87.0915878,
            30.4903515
          ],
          [
            -87.0915794,
            30.4903548
          ],
          [
            -87.0915738,
            30.4903455
          ],
          [
            -87.0915745,
            30.4903447
          ],
          [
            -87.0915725,
            30.4903451
          ],
          [
            -87.0915701,
            30.4903469
          ],
          [
            -87.0915763,
            30.4903533
          ],
          [
            -87.0915707,
            30.4903578
          ],
          [
            -87.0915718,
            30.4903523
          ],
          [
            -87.0915702,
            30.4903535
          ],
          [
            -87.0915691,
            30.4903571
          ],
          [
            -87.091568,
            30.4903554
          ],
          [
            -87.0915616,
            30.4903487
          ],
          [
            -87.0915694,
            30.4903408
          ],
          [
            -87.0915645,
            30.4903321
          ],
          [
            -87.0915546,
            30.4903279
          ],
          [
            -87.0915667,
            30.4903252
          ],
          [
            -87.0915667,
            30.4903252
          ],
          [
            -87.0915711,
            30.4903212
          ],
          [
            -87.0915751,
            30.4903169
          ],
          [
            -87.0915705,
            30.4903261
          ],
          [
            -87.0915656,
            30.4903288
          ],
          [
            -87.091574,
            30.4903306
          ],
          [
            -87.0915756,
            30.4903304
          ],
          [
            -87.091572,
            30.4903255
          ],
          [
            -87.0915769,
            30.4903327
          ],
          [
            -87.0915742,
            30.490331
          ],
          [
            -87.0915896,
            30.4903371
          ],
          [
            -87.0915986,
            30.4903316
          ],
          [
            -87.0915972,
            30.4903305
          ],
          [
            -87.0915885,
            30.4903377
          ],
          [
            -87.0915885,
            30.4903377
          ],
          [
            -87.0915787,
            30.4903395
          ],
          [
            -87.0915712,
            30.4903435
          ],
          [
            -87.0915631,
            30.490346
          ],
          [
            -87.09156,
            30.4903429
          ],
          [
            -87.0915665,
            30.4903444
          ],
          [
            -87.0915668,
            30.4903447
          ],
          [
            -87.0915671,
            30.4903494
          ],
          [
            -87.0915747,
            30.4903523
          ],
          [
            -87.0915873,
            30.4903498
          ],
          [
            -87.0915898,
            30.4903402
          ],
          [
            -87.0915846,
            30.490333
          ],
          [
            -87.0915763,
            30.4903188
          ],
          [
            -87.0915796,
            30.490317
          ],
          [
            -87.0915789,
            30.4903246
          ],
          [
            -87.0915806,
            30.4903272
          ],
          [
            -87.0915832,
            30.490334
          ],
          [
            -87.0915773,
            30.4903333
          ],
          [
            -87.0915842,
            30.4903229
          ],
          [
            -87.0915686,
            30.4903308
          ],
          [
            -87.0915836,
            30.4903361
          ],
          [
            -87.0915894,
            30.4903418
          ],
          [
            -87.091589,
            30.4903545
          ],
          [
            -87.0915813,
            30.490374
          ],
          [
            -87.0915808,
            30.4903787
          ],
          [
            -87.0915781,
            30.4903872
          ],
          [
            -87.0915881,
            30.4903925
          ],
          [
            -87.0915881,
            30.4903925
          ],
          [
            -87.0915885,
            30.4903916
          ],
          [
            -87.0915921,
            30.4903914
          ],
          [
            -87.0915968,
            30.4903907
          ],
          [
            -87.0915959,
            30.4903897
          ],
          [
            -87.0916009,
            30.4903846
          ],
          [
            -87.0915948,
            30.4903662
          ],
          [
            -87.0915926,
            30.490356
          ],
          [
            -87.0915896,
            30.490352
          ],
          [
            -87.0915888,
            30.4903529
          ],
          [
            -87.0915917,
            30.4903539
          ],
          [
            -87.0915763,
            30.4903665
          ],
          [
            -87.0915756,
            30.4903787
          ],
          [
            -87.0915814,
            30.4903837
          ],
          [
            -87.0915813,
            30.4903869
          ],
          [
            -87.0915809,
            30.4903882
          ],
          [
            -87.0915781,
            30.4903951
          ],
          [
            -87.0915734,
            30.4903974
          ],
          [
            -87.0915711,
            30.490403
          ],
          [
            -87.0915814,
            30.4904007
          ],
          [
            -87.0915856,
            30.4904005
          ],
          [
            -87.0915856,
            30.4904005
          ],
          [
            -87.0915856,
            30.4904005
          ],
          [
            -87.0915937,
            30.4904027
          ],
          [
            -87.0915945,
            30.4904032
          ],
          [
            -87.0915945,
            30.4904032
          ],
          [
            -87.0915945,
            30.4904032
          ],
          [
            -87.0915945,
            30.4904032
          ],
          [
            -87.0915903,
            30.4904018
          ],
          [
            -87.0915902,
            30.490402
          ],
          [
            -87.09159,
            30.4904049
          ],
          [
            -87.0915909,
            30.4904053
          ],
          [
            -87.0915865,
            30.4904083
          ],
          [
            -87.0915849,
            30.4904078
          ],
          [
            -87.0915789,
            30.4904148
          ],
          [
            -87.0915824,
            30.4904129
          ],
          [
            -87.0915817,
            30.4904138
          ],
          [
            -87.0915822,
            30.4904201
          ],
          [
            -87.0915813,
            30.490421
          ],
          [
            -87.0915811,
            30.4904246
          ]
        ]
      },
      "properties": {
        "inspection_date": "2026-08-03",
        "segment": 2,
        "information_class": "CAPTURED_BY_DEVICE",
        "warning": "PHONE GPS \u2014 NOT A SURVEY"
      }
    },
    {
      "type": "Feature",
      "geometry": {
        "type": "LineString",
        "coordinates": [
          [
            -87.0915087,
            30.4904662
          ],
          [
            -87.0915087,
            30.4904662
          ]
        ]
      },
      "properties": {
        "inspection_date": "2026-08-03",
        "segment": 3,
        "information_class": "CAPTURED_BY_DEVICE",
        "warning": "PHONE GPS \u2014 NOT A SURVEY"
      }
    },
    {
      "type": "Feature",
      "geometry": {
        "type": "LineString",
        "coordinates": [
          [
            -87.0915087,
            30.4904616
          ],
          [
            -87.0915093,
            30.4904657
          ],
          [
            -87.0915099,
            30.4904655
          ]
        ]
      },
      "properties": {
        "inspection_date": "2026-08-03",
        "segment": 4,
        "information_class": "CAPTURED_BY_DEVICE",
        "warning": "PHONE GPS \u2014 NOT A SURVEY"
      }
    },
    {
      "type": "Feature",
      "geometry": {
        "type": "LineString",
        "coordinates": [
          [
            -87.0909971,
            30.4911847
          ],
          [
            -87.0909971,
            30.4911847
          ]
        ]
      },
      "properties": {
        "inspection_date": "2026-08-03",
        "segment": 5,
        "information_class": "CAPTURED_BY_DEVICE",
        "warning": "PHONE GPS \u2014 NOT A SURVEY"
      }
    },
    {
      "type": "Feature",
      "geometry": {
        "type": "LineString",
        "coordinates": [
          [
            -87.0909888,
            30.4911671
          ],
          [
            -87.0909783,
            30.4911647
          ],
          [
            -87.090968,
            30.4911589
          ],
          [
            -87.0909733,
            30.4911626
          ],
          [
            -87.0909646,
            30.4911612
          ],
          [
            -87.0909707,
            30.4911619
          ],
          [
            -87.0909698,
            30.4911742
          ],
          [
            -87.0909722,
            30.4911697
          ],
          [
            -87.0909799,
            30.4911757
          ],
          [
            -87.0909857,
            30.4911755
          ],
          [
            -87.090984,
            30.4911709
          ],
          [
            -87.0909862,
            30.4911652
          ],
          [
            -87.0909908,
            30.4911516
          ]
        ]
      },
      "properties": {
        "inspection_date": "2026-08-03",
        "segment": 6,
        "information_class": "CAPTURED_BY_DEVICE",
        "warning": "PHONE GPS \u2014 NOT A SURVEY"
      }
    },
    {
      "type": "Feature",
      "geometry": {
        "type": "LineString",
        "coordinates": [
          [
            -87.0910009,
            30.4911496
          ],
          [
            -87.091003,
            30.4911415
          ],
          [
            -87.0910046,
            30.4911345
          ]
        ]
      },
      "properties": {
        "inspection_date": "2026-08-03",
        "segment": 7,
        "information_class": "CAPTURED_BY_DEVICE",
        "warning": "PHONE GPS \u2014 NOT A SURVEY"
      }
    },
    {
      "type": "Feature",
      "geometry": {
        "type": "LineString",
        "coordinates": [
          [
            -87.0909986,
            30.4911067
          ],
          [
            -87.0909949,
            30.4911021
          ],
          [
            -87.0909932,
            30.491099
          ],
          [
            -87.0909979,
            30.4910977
          ],
          [
            -87.0910002,
            30.4910978
          ],
          [
            -87.0910002,
            30.4910978
          ],
          [
            -87.0910002,
            30.4910978
          ],
          [
            -87.0910002,
            30.4910978
          ],
          [
            -87.0909918,
            30.4910906
          ],
          [
            -87.0909996,
            30.4910731
          ],
          [
            -87.0909969,
            30.4910673
          ],
          [
            -87.0909969,
            30.4910673
          ],
          [
            -87.0909942,
            30.4910692
          ],
          [
            -87.0909932,
            30.4910711
          ],
          [
            -87.0909902,
            30.4910651
          ],
          [
            -87.0909937,
            30.4910644
          ],
          [
            -87.0909952,
            30.4910665
          ],
          [
            -87.090986,
            30.4910621
          ],
          [
            -87.090986,
            30.4910621
          ],
          [
            -87.090989,
            30.4910585
          ],
          [
            -87.0909757,
            30.4910549
          ],
          [
            -87.0909802,
            30.4910628
          ],
          [
            -87.0909687,
            30.4910695
          ],
          [
            -87.0909654,
            30.4910729
          ],
          [
            -87.0909639,
            30.4910716
          ],
          [
            -87.0909684,
            30.4910771
          ],
          [
            -87.0909623,
            30.4910829
          ],
          [
            -87.0909575,
            30.4910858
          ],
          [
            -87.0909628,
            30.4910864
          ],
          [
            -87.0909566,
            30.4910872
          ],
          [
            -87.0909572,
            30.4910862
          ],
          [
            -87.0909541,
            30.491092
          ],
          [
            -87.0909582,
            30.4910933
          ],
          [
            -87.0909582,
            30.4910933
          ],
          [
            -87.0909689,
            30.4910886
          ],
          [
            -87.0909695,
            30.4910875
          ],
          [
            -87.090968,
            30.4910884
          ],
          [
            -87.0909637,
            30.4910841
          ],
          [
            -87.0909613,
            30.4910845
          ],
          [
            -87.0909624,
            30.491084
          ],
          [
            -87.0909624,
            30.491084
          ],
          [
            -87.0909624,
            30.491084
          ],
          [
            -87.0909624,
            30.491084
          ],
          [
            -87.0909624,
            30.491084
          ],
          [
            -87.0909701,
            30.4910705
          ],
          [
            -87.0909674,
            30.491075
          ],
          [
            -87.0909717,
            30.4910756
          ],
          [
            -87.0909809,
            30.4910824
          ],
          [
            -87.0909855,
            30.4910729
          ],
          [
            -87.0909924,
            30.4910746
          ],
          [
            -87.0909982,
            30.4910796
          ],
          [
            -87.0910024,
            30.4910795
          ],
          [
            -87.0910027,
            30.491088
          ],
          [
            -87.091004,
            30.4910991
          ],
          [
            -87.0909998,
            30.4911007
          ],
          [
            -87.0909982,
            30.4911047
          ],
          [
            -87.0909923,
            30.4911013
          ],
          [
            -87.0909922,
            30.4911037
          ],
          [
            -87.0909945,
            30.4911095
          ],
          [
            -87.0909883,
            30.4911126
          ],
          [
            -87.0909811,
            30.491116
          ],
          [
            -87.0909755,
            30.491114
          ],
          [
            -87.0909748,
            30.4911133
          ],
          [
            -87.0909748,
            30.4911133
          ],
          [
            -87.0909777,
            30.4911116
          ],
          [
            -87.0909796,
            30.4911102
          ],
          [
            -87.0909773,
            30.4911089
          ],
          [
            -87.0909779,
            30.4911091
          ],
          [
            -87.090983,
            30.4911097
          ],
          [
            -87.0909836,
            30.4911103
          ],
          [
            -87.0909861,
            30.4911085
          ],
          [
            -87.0909864,
            30.4911085
          ],
          [
            -87.0909864,
            30.4911085
          ],
          [
            -87.0909846,
            30.491111
          ],
          [
            -87.0909751,
            30.4911076
          ],
          [
            -87.0909737,
            30.4911075
          ],
          [
            -87.0909737,
            30.4911075
          ],
          [
            -87.0909776,
            30.4911104
          ],
          [
            -87.0909758,
            30.4911097
          ],
          [
            -87.090972,
            30.4911116
          ],
          [
            -87.0909766,
            30.4911109
          ],
          [
            -87.0909766,
            30.491111
          ],
          [
            -87.0909771,
            30.4911068
          ],
          [
            -87.0909771,
            30.4911068
          ],
          [
            -87.0909779,
            30.4911032
          ],
          [
            -87.0909801,
            30.491104
          ],
          [
            -87.0909826,
            30.4911098
          ]
        ]
      },
      "properties": {
        "inspection_date": "2026-08-03",
        "segment": 8,
        "information_class": "CAPTURED_BY_DEVICE",
        "warning": "PHONE GPS \u2014 NOT A SURVEY"
      }
    },
    {
      "type": "Feature",
      "geometry": {
        "type": "LineString",
        "coordinates": [
          [
            -87.0913736,
            30.490336
          ],
          [
            -87.0911479,
            30.4904231
          ],
          [
            -87.0910701,
            30.490403
          ],
          [
            -87.0910515,
            30.4904034
          ],
          [
            -87.0910495,
            30.4903994
          ],
          [
            -87.0910387,
            30.4903911
          ],
          [
            -87.0910356,
            30.4903841
          ],
          [
            -87.0910366,
            30.4903805
          ],
          [
            -87.0910401,
            30.4903757
          ],
          [
            -87.0910499,
            30.4903789
          ],
          [
            -87.0910613,
            30.4903772
          ],
          [
            -87.0910742,
            30.4903678
          ],
          [
            -87.0910823,
            30.490363
          ],
          [
            -87.0910894,
            30.4903593
          ],
          [
            -87.0910986,
            30.4903484
          ],
          [
            -87.0911014,
            30.4903451
          ],
          [
            -87.0911042,
            30.4903426
          ],
          [
            -87.0910987,
            30.4903462
          ],
          [
            -87.0910979,
            30.4903467
          ],
          [
            -87.0910917,
            30.4903507
          ],
          [
            -87.0910879,
            30.4903524
          ],
          [
            -87.0910852,
            30.4903528
          ],
          [
            -87.0910844,
            30.4903529
          ],
          [
            -87.0910844,
            30.4903529
          ],
          [
            -87.0910822,
            30.4903536
          ],
          [
            -87.0910808,
            30.490354
          ],
          [
            -87.09108,
            30.490354
          ],
          [
            -87.0910799,
            30.4903538
          ],
          [
            -87.09108,
            30.4903538
          ],
          [
            -87.0910805,
            30.490354
          ],
          [
            -87.091081,
            30.4903541
          ],
          [
            -87.0910825,
            30.490352
          ],
          [
            -87.0910945,
            30.4903465
          ],
          [
            -87.0911063,
            30.4903416
          ],
          [
            -87.0911366,
            30.4903377
          ],
          [
            -87.0911474,
            30.490334
          ],
          [
            -87.0911511,
            30.4903238
          ],
          [
            -87.0911619,
            30.4903222
          ],
          [
            -87.0911737,
            30.4903153
          ],
          [
            -87.0911755,
            30.4903111
          ],
          [
            -87.0911916,
            30.490304
          ],
          [
            -87.0912049,
            30.4903052
          ],
          [
            -87.0911992,
            30.4903108
          ],
          [
            -87.0912009,
            30.4903199
          ],
          [
            -87.0912114,
            30.4903154
          ],
          [
            -87.0912114,
            30.4903154
          ]
        ]
      },
      "properties": {
        "inspection_date": "2026-08-03",
        "segment": 9,
        "information_class": "CAPTURED_BY_DEVICE",
        "warning": "PHONE GPS \u2014 NOT A SURVEY"
      }
    },
    {
      "type": "Feature",
      "geometry": {
        "type": "LineString",
        "coordinates": [
          [
            -87.0912143,
            30.490286
          ],
          [
            -87.0912175,
            30.4903404
          ],
          [
            -87.0912035,
            30.4903766
          ],
          [
            -87.0911973,
            30.4903846
          ],
          [
            -87.0911922,
            30.4903802
          ],
          [
            -87.0911871,
            30.4903674
          ],
          [
            -87.0911826,
            30.4903601
          ],
          [
            -87.091182,
            30.4903502
          ],
          [
            -87.0911839,
            30.4903447
          ],
          [
            -87.0911846,
            30.4903427
          ],
          [
            -87.0911859,
            30.4903373
          ],
          [
            -87.0911893,
            30.4903341
          ],
          [
            -87.0911893,
            30.4903341
          ],
          [
            -87.091193,
            30.4903317
          ],
          [
            -87.091193,
            30.4903317
          ],
          [
            -87.0911959,
            30.4903305
          ],
          [
            -87.0912,
            30.4903233
          ],
          [
            -87.0912,
            30.4903233
          ],
          [
            -87.0912,
            30.4903233
          ],
          [
            -87.0912003,
            30.4903229
          ],
          [
            -87.0911981,
            30.4903255
          ],
          [
            -87.0911951,
            30.4903281
          ],
          [
            -87.0911937,
            30.4903292
          ],
          [
            -87.0911929,
            30.4903286
          ],
          [
            -87.0911924,
            30.4903275
          ],
          [
            -87.0911928,
            30.4903272
          ],
          [
            -87.0911932,
            30.4903271
          ],
          [
            -87.0911967,
            30.490326
          ],
          [
            -87.0912095,
            30.4903168
          ],
          [
            -87.0912242,
            30.4903061
          ],
          [
            -87.0912372,
            30.4902955
          ],
          [
            -87.0912502,
            30.4902855
          ],
          [
            -87.0912621,
            30.4902792
          ],
          [
            -87.0912754,
            30.4902694
          ],
          [
            -87.0912913,
            30.4902629
          ],
          [
            -87.0913065,
            30.4902548
          ],
          [
            -87.0913187,
            30.4902473
          ],
          [
            -87.0913284,
            30.4902412
          ],
          [
            -87.091338,
            30.4902343
          ],
          [
            -87.091347,
            30.4902294
          ],
          [
            -87.0913591,
            30.4902217
          ],
          [
            -87.09137,
            30.4902139
          ],
          [
            -87.09138,
            30.490205
          ],
          [
            -87.0913867,
            30.4902002
          ],
          [
            -87.0913933,
            30.4901951
          ],
          [
            -87.0913946,
            30.4901937
          ],
          [
            -87.091384,
            30.4902003
          ],
          [
            -87.0913799,
            30.4902033
          ],
          [
            -87.0913774,
            30.4902049
          ],
          [
            -87.0913752,
            30.4902059
          ],
          [
            -87.0913725,
            30.490209
          ],
          [
            -87.0913712,
            30.4902122
          ],
          [
            -87.0913712,
            30.4902122
          ],
          [
            -87.091364,
            30.490232
          ],
          [
            -87.0913597,
            30.490228
          ],
          [
            -87.0913649,
            30.4902247
          ],
          [
            -87.091368,
            30.49022
          ],
          [
            -87.09137,
            30.490214
          ],
          [
            -87.0913678,
            30.4902146
          ],
          [
            -87.0913737,
            30.4902142
          ],
          [
            -87.0913748,
            30.4902195
          ],
          [
            -87.0913723,
            30.4902182
          ],
          [
            -87.0913749,
            30.4902193
          ],
          [
            -87.0913773,
            30.490218
          ],
          [
            -87.0913774,
            30.4902195
          ],
          [
            -87.0913753,
            30.4902159
          ],
          [
            -87.091378,
            30.4902195
          ],
          [
            -87.091381,
            30.4902191
          ],
          [
            -87.091386,
            30.4902305
          ],
          [
            -87.0913895,
            30.4902366
          ],
          [
            -87.0913892,
            30.4902401
          ],
          [
            -87.0913849,
            30.4902383
          ],
          [
            -87.0913851,
            30.4902408
          ],
          [
            -87.0913877,
            30.4902469
          ],
          [
            -87.0913899,
            30.4902441
          ],
          [
            -87.0913908,
            30.4902386
          ],
          [
            -87.0913939,
            30.4902418
          ],
          [
            -87.0913974,
            30.4902403
          ],
          [
            -87.0913931,
            30.4902368
          ],
          [
            -87.0913948,
            30.490239
          ],
          [
            -87.0913932,
            30.4902419
          ],
          [
            -87.0913917,
            30.4902431
          ],
          [
            -87.091393,
            30.4902397
          ],
          [
            -87.0913935,
            30.4902442
          ],
          [
            -87.0913915,
            30.4902455
          ],
          [
            -87.0913938,
            30.4902486
          ],
          [
            -87.0913927,
            30.4902503
          ],
          [
            -87.0913903,
            30.4902549
          ],
          [
            -87.0913921,
            30.4902539
          ],
          [
            -87.0913927,
            30.4902564
          ],
          [
            -87.0913953,
            30.4902534
          ],
          [
            -87.0913967,
            30.4902495
          ],
          [
            -87.0913947,
            30.4902507
          ],
          [
            -87.0913951,
            30.4902509
          ],
          [
            -87.0913977,
            30.4902453
          ],
          [
            -87.0913987,
            30.4902437
          ],
          [
            -87.0913994,
            30.4902451
          ],
          [
            -87.0913989,
            30.4902496
          ],
          [
            -87.0913989,
            30.4902496
          ],
          [
            -87.0913989,
            30.4902496
          ]
        ]
      },
      "properties": {
        "inspection_date": "2026-08-03",
        "segment": 10,
        "information_class": "CAPTURED_BY_DEVICE",
        "warning": "PHONE GPS \u2014 NOT A SURVEY"
      }
    },
    {
      "type": "Feature",
      "geometry": {
        "type": "LineString",
        "coordinates": [
          [
            -87.0913789,
            30.4902117
          ],
          [
            -87.0913783,
            30.4902116
          ],
          [
            -87.0913776,
            30.4902112
          ],
          [
            -87.0913778,
            30.4902112
          ],
          [
            -87.0913795,
            30.4902104
          ],
          [
            -87.0913863,
            30.4902119
          ],
          [
            -87.0913925,
            30.4902099
          ],
          [
            -87.0913985,
            30.4902052
          ],
          [
            -87.0914048,
            30.4902004
          ],
          [
            -87.0914076,
            30.4901989
          ],
          [
            -87.09141,
            30.4901976
          ],
          [
            -87.091412,
            30.4901981
          ],
          [
            -87.0914143,
            30.4901966
          ],
          [
            -87.0914143,
            30.4901966
          ],
          [
            -87.0914242,
            30.4901873
          ],
          [
            -87.0914236,
            30.490183
          ],
          [
            -87.0914256,
            30.4901816
          ],
          [
            -87.0914272,
            30.4901826
          ],
          [
            -87.0914276,
            30.4901833
          ],
          [
            -87.091428,
            30.4901826
          ],
          [
            -87.0914287,
            30.4901821
          ],
          [
            -87.0914287,
            30.4901821
          ],
          [
            -87.0914295,
            30.4901811
          ],
          [
            -87.0914303,
            30.4901801
          ],
          [
            -87.0914311,
            30.490179
          ],
          [
            -87.0914316,
            30.4901788
          ],
          [
            -87.0914317,
            30.4901786
          ],
          [
            -87.0914318,
            30.4901786
          ],
          [
            -87.0914318,
            30.4901785
          ],
          [
            -87.0914318,
            30.4901785
          ],
          [
            -87.0914318,
            30.4901785
          ],
          [
            -87.0914318,
            30.4901785
          ],
          [
            -87.0914318,
            30.4901785
          ],
          [
            -87.0914337,
            30.4901777
          ],
          [
            -87.0914546,
            30.4902048
          ],
          [
            -87.0914588,
            30.4901974
          ],
          [
            -87.0914727,
            30.4901887
          ],
          [
            -87.0914832,
            30.490183
          ],
          [
            -87.0914867,
            30.4901781
          ],
          [
            -87.091498,
            30.4901746
          ],
          [
            -87.0914955,
            30.4901643
          ],
          [
            -87.0915039,
            30.490158
          ],
          [
            -87.0915094,
            30.4901583
          ],
          [
            -87.0915121,
            30.4901536
          ],
          [
            -87.0915261,
            30.4901488
          ],
          [
            -87.0915357,
            30.490146
          ],
          [
            -87.0915468,
            30.490145
          ],
          [
            -87.0915562,
            30.4901331
          ],
          [
            -87.0915613,
            30.4901244
          ],
          [
            -87.0915614,
            30.4901194
          ],
          [
            -87.0915642,
            30.4901118
          ],
          [
            -87.0915726,
            30.4901063
          ],
          [
            -87.0915771,
            30.4901013
          ],
          [
            -87.0915802,
            30.4901019
          ],
          [
            -87.0915705,
            30.4900932
          ],
          [
            -87.0915708,
            30.490093
          ],
          [
            -87.0915708,
            30.490093
          ],
          [
            -87.091577,
            30.4900986
          ],
          [
            -87.0915796,
            30.4901004
          ],
          [
            -87.0915796,
            30.4901004
          ],
          [
            -87.0915843,
            30.4901059
          ],
          [
            -87.0915849,
            30.4901095
          ],
          [
            -87.0915851,
            30.4901097
          ],
          [
            -87.0915843,
            30.4901123
          ],
          [
            -87.0915843,
            30.4901123
          ],
          [
            -87.0915843,
            30.4901123
          ],
          [
            -87.0915843,
            30.4901123
          ],
          [
            -87.0915843,
            30.4901123
          ],
          [
            -87.0915843,
            30.4901123
          ],
          [
            -87.0915843,
            30.4901123
          ],
          [
            -87.0915983,
            30.4901192
          ],
          [
            -87.0915927,
            30.4901173
          ],
          [
            -87.0915883,
            30.4901175
          ],
          [
            -87.0915852,
            30.4901173
          ],
          [
            -87.0915845,
            30.4901139
          ],
          [
            -87.0915907,
            30.4901176
          ],
          [
            -87.0915926,
            30.4901205
          ],
          [
            -87.0915913,
            30.4901223
          ],
          [
            -87.091594,
            30.4901173
          ],
          [
            -87.0916,
            30.4901172
          ],
          [
            -87.0916071,
            30.4901189
          ],
          [
            -87.0916117,
            30.4901127
          ],
          [
            -87.0916123,
            30.4901184
          ],
          [
            -87.0916089,
            30.4901213
          ],
          [
            -87.0916114,
            30.490132
          ],
          [
            -87.0916114,
            30.490132
          ],
          [
            -87.091605,
            30.4901334
          ],
          [
            -87.0916046,
            30.4901276
          ],
          [
            -87.0916034,
            30.4901219
          ],
          [
            -87.0915893,
            30.490118
          ],
          [
            -87.0915773,
            30.490114
          ],
          [
            -87.0915795,
            30.4901114
          ],
          [
            -87.0915856,
            30.4901005
          ],
          [
            -87.0915761,
            30.4900915
          ],
          [
            -87.0915669,
            30.4900913
          ],
          [
            -87.0915679,
            30.4900984
          ],
          [
            -87.0915519,
            30.4901133
          ],
          [
            -87.0915519,
            30.4901133
          ]
        ]
      },
      "properties": {
        "inspection_date": "2026-08-03",
        "segment": 11,
        "information_class": "CAPTURED_BY_DEVICE",
        "warning": "PHONE GPS \u2014 NOT A SURVEY"
      }
    },
    {
      "type": "Feature",
      "geometry": {
        "type": "LineString",
        "coordinates": [
          [
            -87.0915456,
            30.4900729
          ],
          [
            -87.0915602,
            30.4900749
          ],
          [
            -87.0915681,
            30.4900766
          ],
          [
            -87.0915723,
            30.4900776
          ],
          [
            -87.0915744,
            30.4900782
          ],
          [
            -87.0915756,
            30.4900785
          ],
          [
            -87.0915844,
            30.4900832
          ],
          [
            -87.0915826,
            30.4900854
          ],
          [
            -87.0915826,
            30.4900854
          ],
          [
            -87.0915783,
            30.4900888
          ],
          [
            -87.091577,
            30.4900943
          ],
          [
            -87.0915768,
            30.4900967
          ],
          [
            -87.0915768,
            30.4900979
          ],
          [
            -87.0915768,
            30.4900979
          ]
        ]
      },
      "properties": {
        "inspection_date": "2026-08-03",
        "segment": 12,
        "information_class": "CAPTURED_BY_DEVICE",
        "warning": "PHONE GPS \u2014 NOT A SURVEY"
      }
    }
  ]
}